NORAD_CAT_ID,OBJECT_NAME,OBJECT_TYPE,EPOCH,MEAN_MOTION,ECCENTRICITY,INCLINATION,RA_OF_ASC_NODE,ARG_OF_PERICENTER,MEAN_ANOMALY,BSTAR,MEAN_MOTION_DOT,MEAN_MOTION_DDOT,TLE_LINE0,TLE_LINE1,TLE_LINE2,SEMIMAJOR_AXIS,PERIOD,APOGEE,PERIGEE,DECAYED
54004.0,STARLINK-5129,PAYLOAD,2024-04-27 10:54:17,15.08861596,0.0001396,53.2187,31.9835,78.1747,281.9402,0.0004536,6.943e-05,0.0,0 STARLINK-5129,1 54004U 22125AS  24118.45436973  .00006943  00000-0  45360-3 0  9995,2 54004  53.2187  31.9835 0001396  78.1747 281.9402 15.08861596 86675,6917.814,95.436,540.645,538.714,0.0
54004.0,STARLINK-5129,PAYLOAD,2024-04-27 18:51:13,15.08847643,0.0002949,53.2176,30.5006,75.6444,284.4876,0.00071315,0.00011082,0.0,0 STARLINK-5129,1 54004U 22125AS  24118.78557717  .00011082  00000-0  71315-3 0  9990,2 54004  53.2176  30.5006 0002949  75.6444 284.4876 15.08847643 86725,6917.857,95.437,541.762,537.682,0.0
54004.0,STARLINK-5129,PAYLOAD,2024-04-27 22:02:00,15.08829312,0.0001416,53.2168,29.9066,76.1241,283.9908,0.00014259,1.981e-05,0.0,0 STARLINK-5129,1 54004U 22125AS  24118.91805824  .00001981  00000-0  14259-3 0  9991,2 54004  53.2168  29.9066 0001416  76.1241 283.9908 15.08829312 86692,6917.913,95.438,540.758,538.798,0.0
54004.0,STARLINK-5129,PAYLOAD,2024-04-28 02:48:09,15.08835831,0.0001146,53.2177,29.0158,75.5225,284.5894,0.0017236,0.00027246,0.0,0 STARLINK-5129,1 54004U 22125AS  24119.11677941  .00027246  00000-0  17236-2 0  9990,2 54004  53.2177  29.0158 0001146  75.5225 284.5894 15.08835831 86773,6917.893,95.438,540.551,538.965,0.0
54004.0,STARLINK-5129,PAYLOAD,2024-04-28 10:45:05,15.08836625,0.0001244,53.2186,27.5297,83.8127,276.3007,0.0010866,0.00017046,0.0,0 STARLINK-5129,1 54004U 22125AS  24119.44798209  .00017046  00000-0  10866-2 0  9996,2 54004  53.2186  27.5297 0001244  83.8127 276.3007 15.08836625 86825,6917.891,95.438,540.616,538.895,0.0
54004.0,STARLINK-5129,PAYLOAD,2024-04-28 21:52:47,15.08847848,0.0001196,53.2182,25.4484,83.9032,276.2096,0.00088719,0.00013863,0.0,0 STARLINK-5129,1 54004U 22125AS  24119.91166098  .00013863  00000-0  88719-3 0  9999,2 54004  53.2182  25.4484 0001196  83.9032 276.2096 15.08847848 86846,6917.856,95.437,540.549,538.894,0.0
54004.0,STARLINK-5129,PAYLOAD,2024-04-29 10:35:52,15.08844909,0.0001579,53.2171,23.0672,78.6142,281.5027,0.0004951,7.601e-05,0.0,0 STARLINK-5129,1 54004U 22125AS  24120.44158067  .00007601  00000-0  49510-3 0  9995,2 54004  53.2171  23.0672 0001579  78.6142 281.5027 15.08844909 86977,6917.865,95.437,540.823,538.638,0.0
54004.0,STARLINK-5129,PAYLOAD,2024-04-29 21:43:34,15.08857837,0.0001153,53.2179,20.9877,80.5375,279.5747,0.00060089,9.293e-05,0.0,0 STARLINK-5129,1 54004U 22125AS  24120.90525473  .00009293  00000-0  60089-3 0  9998,2 54004  53.2179  20.9877 0001153  80.5375 279.5747 15.08857837 86998,6917.826,95.436,540.488,538.893,0.0
54004.0,STARLINK-5129,PAYLOAD,2024-04-30 00:54:19,15.08875789,0.0001136,53.2173,20.392,75.3446,284.7672,0.0012485,0.00019657,0.0,0 STARLINK-5129,1 54004U 22125AS  24121.03772996  .00019657  00000-0  12485-2 0  9998,2 54004  53.2173  20.3920 0001136  75.3446 284.7672 15.08875789 87067,6917.771,95.435,540.422,538.85,0.0
54004.0,STARLINK-5129,PAYLOAD,2024-04-30 10:26:38,15.08858835,0.0001179,53.2175,18.608,85.4975,274.6152,0.00045421,6.952e-05,0.0,0 STARLINK-5129,1 54004U 22125AS  24121.43516906  .00006952  00000-0  45421-3 0  9990,2 54004  53.2175  18.6080 0001179  85.4975 274.6152 15.08858835 87123,6917.823,95.436,540.503,538.872,0.0
54004.0,STARLINK-5129,PAYLOAD,2024-04-30 23:09:43,15.08840045,9.65e-05,53.2177,16.2271,99.5592,260.5509,-5.0372e-05,-1.089e-05,0.0,0 STARLINK-5129,1 54004U 22125AS  24121.96509208 -.00001089  00000-0 -50372-4 0  9995,2 54004  53.2177  16.2271 0000965  99.5592 260.5509 15.08840045 87151,6917.88,95.438,540.413,539.078,0.0
54004.0,STARLINK-5129,PAYLOAD,2024-05-01 02:20:30,15.08843441,0.0001073,53.217,15.6308,104.8648,255.2463,0.00019897,2.881e-05,0.0,0 STARLINK-5129,1 54004U 22125AS  24122.09757063  .00002881  00000-0  19897-3 0  9999,2 54004  53.2170  15.6308 0001073 104.8648 255.2463 15.08843441 87222,6917.87,95.437,540.477,538.993,0.0
54004.0,STARLINK-5129,PAYLOAD,2024-05-01 10:17:26,15.08838137,0.000109,53.2168,14.1435,104.5364,255.5749,0.000608,9.401e-05,0.0,0 STARLINK-5129,1 54004U 22125AS  24122.42877436  .00009401  00000-0  60800-3 0  9998,2 54004  53.2168  14.1435 0001090 104.5364 255.5749 15.08838137 87221,6917.886,95.438,540.505,538.997,0.0
54004.0,STARLINK-5129,PAYLOAD,2024-05-01 23:00:31,15.08846694,0.0001077,53.2171,11.7647,100.0852,260.0262,0.00058179,8.985e-05,0.0,0 STARLINK-5129,1 54004U 22125AS  24122.95869404  .00008985  00000-0  58179-3 0  9994,2 54004  53.2171  11.7647 0001077 100.0852 260.0262 15.08846694 87308,6917.86,95.437,540.47,538.98,0.0
54004.0,STARLINK-5129,PAYLOAD,2024-05-02 10:08:13,15.08844539,0.0001082,53.2156,9.685,83.095,277.0165,0.00031521,4.733e-05,0.0,0 STARLINK-5129,1 54004U 22125AS  24123.42237457  .00004733  00000-0  31521-3 0  9993,2 54004  53.2156   9.6850 0001082  83.0950 277.0165 15.08844539 87427,6917.867,95.437,540.48,538.983,0.0
54004.0,STARLINK-5129,PAYLOAD,2024-05-02 21:15:55,15.08834542,0.0001166,53.2167,7.6042,83.996,276.1165,0.00011537,1.548e-05,0.0,0 STARLINK-5129,1 54004U 22125AS  24123.88605948  .00001548  00000-0  11537-3 0  9993,2 54004  53.2167   7.6042 0001166  83.9960 276.1165 15.08834542 87493,6917.897,95.438,540.569,538.955,0.0
54004.0,STARLINK-5129,PAYLOAD,2024-05-03 22:42:05,15.08844179,0.0001289,53.2175,2.846,98.8182,261.2956,0.0001506,2.11e-05,0.0,0 STARLINK-5129,1 54004U 22125AS  24124.94589563  .00002110  00000-0  15060-3 0  9996,2 54004  53.2175   2.8460 0001289  98.8182 261.2956 15.08844179 87603,6917.868,95.437,540.624,538.841,0.0
54004.0,STARLINK-5129,PAYLOAD,2024-05-04 01:52:51,15.08847319,0.0001261,53.2174,2.2516,100.8639,259.2495,3.49e-05,2.68e-06,0.0,0 STARLINK-5129,1 54004U 22125AS  24125.07837369  .00000268  00000-0  34900-4 0  9998,2 54004  53.2174   2.2516 0001261 100.8639 259.2495 15.08847319 87670,6917.858,95.437,540.595,538.851,0.0
54004.0,STARLINK-5129,PAYLOAD,2024-05-04 08:14:24,15.08839121,0.0001215,53.2168,1.0613,97.1446,262.9684,7.1775e-05,8.55e-06,0.0,0 STARLINK-5129,1 54004U 22125AS  24125.34333763  .00000855  00000-0  71775-4 0  9990,2 54004  53.2168   1.0613 0001215  97.1446 262.9684 15.08839121 87719,6917.883,95.438,540.589,538.908,0.0
54004.0,STARLINK-5129,PAYLOAD,2024-05-04 20:57:30,15.08828932,0.0001169,53.2175,358.6836,98.9436,261.1689,8.2849e-06,-1.56e-06,0.0,0 STARLINK-5129,1 54004U 22125AS  24125.87326538 -.00000156  00000-0  82849-5 0  9990,2 54004  53.2175 358.6836 0001169  98.9436 261.1689 15.08828932 87793,6917.914,95.438,540.588,538.971,0.0
54004.0,STARLINK-5129,PAYLOAD,2024-05-04 22:32:53,15.08832309,0.0001216,53.2174,358.3885,96.1746,263.9384,2.3464e-05,8.6e-07,0.0,0 STARLINK-5129,1 54004U 22125AS  24125.93950470  .00000086  00000-0  23464-4 0  9993,2 54004  53.2174 358.3885 0001216  96.1746 263.9384 15.08832309 87751,6917.904,95.438,540.61,538.928,0.0
54004.0,STARLINK-5129,PAYLOAD,2024-05-05 20:48:16,15.08845049,0.0001252,53.2178,354.2255,105.1303,254.9827,0.00017443,2.49e-05,0.0,0 STARLINK-5129,1 54004U 22125AS  24126.86685982  .00002490  00000-0  17443-3 0  9999,2 54004  53.2178 354.2255 0001252 105.1303 254.9827 15.08845049 87949,6917.865,95.437,540.596,538.864,0.0
54004.0,STARLINK-5129,PAYLOAD,2024-05-06 07:55:58,15.08849455,0.0001225,53.2181,352.1436,97.7238,262.3893,0.0002234,3.27e-05,0.0,0 STARLINK-5129,1 54004U 22125AS  24127.33053759  .00003270  00000-0  22340-3 0  9992,2 54004  53.2181 352.1436 0001225  97.7238 262.3893 15.08849455 87967,6917.851,95.437,540.564,538.869,0.0
54004.0,STARLINK-5129,PAYLOAD,2024-05-06 20:39:03,15.08844658,0.0001323,53.2185,349.7671,97.871,262.2432,0.00015573,2.192e-05,0.0,0 STARLINK-5129,1 54004U 22125AS  24127.86046044  .00002192  00000-0  15573-3 0  9991,2 54004  53.2185 349.7671 0001323  97.8710 262.2432 15.08844658 88092,6917.866,95.437,540.646,538.816,0.0
54004.0,STARLINK-5129,PAYLOAD,2024-05-06 22:14:26,15.08845418,0.0001304,53.2182,349.4683,88.7815,271.3326,0.00019563,2.827e-05,0.0,0 STARLINK-5129,1 54004U 22125AS  24127.92670013  .00002827  00000-0  19563-3 0  9995,2 54004  53.2182 349.4683 0001304  88.7815 271.3326 15.08845418 88057,6917.864,95.437,540.631,538.827,0.0
54004.0,STARLINK-5129,PAYLOAD,2024-05-07 07:46:45,15.08841113,0.0001,53.2164,347.6763,81.8983,278.2122,4.6325e-05,4.5e-06,0.0,0 STARLINK-5129,1 54004U 22125AS  24128.32414014  .00000450  00000-0  46325-4 0  9994,2 54004  53.2164 347.6763 0001000  81.8983 278.2122 15.08841113 88114,6917.877,95.437,540.434,539.05,0.0
54004.0,STARLINK-5129,PAYLOAD,2024-05-07 20:29:51,15.0883331,0.0001322,53.2173,345.2975,80.8698,279.2444,-0.00012046,-2.204e-05,0.0,0 STARLINK-5129,1 54004U 22125AS  24128.85406673 -.00002204  00000-0 -12046-3 0  9997,2 54004  53.2173 345.2975 0001322  80.8698 279.2444 15.08833310 88244,6917.901,95.438,540.68,538.851,0.0
54004.0,STARLINK-5129,PAYLOAD,2024-05-07 22:05:14,15.08835218,0.0001229,53.2174,345.0066,87.0055,273.1077,-7.4333e-05,-1.47e-05,0.0,0 STARLINK-5129,1 54004U 22125AS  24128.92030641 -.00001470  00000-0 -74333-4 0  9995,2 54004  53.2174 345.0066 0001229  87.0055 273.1077 15.08835218 88206,6917.895,95.438,540.61,538.91,0.0
54004.0,STARLINK-5129,PAYLOAD,2024-05-08 13:59:05,15.08839025,0.0001208,53.2171,342.0314,86.2551,273.8579,0.00011777,1.587e-05,0.0,0 STARLINK-5129,1 54004U 22125AS  24129.58270716  .00001587  00000-0  11777-3 0  9996,2 54004  53.2171 342.0314 0001208  86.2551 273.8579 15.08839025 88300,6917.883,95.438,540.584,538.913,0.0
54004.0,STARLINK-5129,PAYLOAD,2024-05-08 20:20:38,15.08845956,0.0001077,53.2163,340.8422,88.2043,271.9072,0.00014037,1.947e-05,0.0,0 STARLINK-5129,1 54004U 22125AS  24129.84766366  .00001947  00000-0  14037-3 0  9998,2 54004  53.2163 340.8422 0001077  88.2043 271.9072 15.08845956 88395,6917.862,95.437,540.472,538.982,0.0
